[{"OBJECT_NAME":"STARLINK-36873","OBJECT_ID":"2026-037S","EPOCH":"2026-03-24T12:00:01.999296","MEAN_MOTION":15.50595092,"ECCENTRICITY":0.0002192,"INCLINATION":42.9999,"RA_OF_ASC_NODE":108.973,"ARG_OF_PERICENTER":305.8915,"MEAN_ANOMALY":69.4419,"EPHEMERIS_TYPE":0,"CLASSIFICATION_TYPE":"U","NORAD_CAT_ID":67948,"ELEMENT_SET_NO":999,"REV_AT_EPOCH":558,"BSTAR":-0.00042941,"MEAN_MOTION_DOT":-0.00025467,"MEAN_MOTION_DDOT":0},{"OBJECT_NAME":"STARLINK-36863","OBJECT_ID":"2026-037T","EPOCH":"2026-03-24T12:00:01.999296","MEAN_MOTION":15.50470309,"ECCENTRICITY":9.76e-5,"INCLINATION":42.9999,"RA_OF_ASC_NODE":108.6575,"ARG_OF_PERICENTER":293.221,"MEAN_ANOMALY":210.0922,"EPHEMERIS_TYPE":0,"CLASSIFICATION_TYPE":"U","NORAD_CAT_ID":67949,"ELEMENT_SET_NO":999,"REV_AT_EPOCH":558,"BSTAR":0.0021473,"MEAN_MOTION_DOT":0.00127201,"MEAN_MOTION_DDOT":0},{"OBJECT_NAME":"STARLINK-36887","OBJECT_ID":"2026-037U","EPOCH":"2026-03-24T12:00:01.999296","MEAN_MOTION":15.50512911,"ECCENTRICITY":0.0001541,"INCLINATION":42.9997,"RA_OF_ASC_NODE":109.5885,"ARG_OF_PERICENTER":280.0489,"MEAN_ANOMALY":206.4311,"EPHEMERIS_TYPE":0,"CLASSIFICATION_TYPE":"U","NORAD_CAT_ID":67950,"ELEMENT_SET_NO":999,"REV_AT_EPOCH":558,"BSTAR":0.001713,"MEAN_MOTION_DOT":0.00101224,"MEAN_MOTION_DDOT":0},{"OBJECT_NAME":"STARLINK-36897","OBJECT_ID":"2026-037V","EPOCH":"2026-03-24T12:00:01.999296","MEAN_MOTION":15.50473373,"ECCENTRICITY":8.96e-5,"INCLINATION":42.9999,"RA_OF_ASC_NODE":108.7036,"ARG_OF_PERICENTER":297.5557,"MEAN_ANOMALY":186.5285,"EPHEMERIS_TYPE":0,"CLASSIFICATION_TYPE":"U","NORAD_CAT_ID":67951,"ELEMENT_SET_NO":999,"REV_AT_EPOCH":558,"BSTAR":0.0019815,"MEAN_MOTION_DOT":0.00117219,"MEAN_MOTION_DDOT":0},{"OBJECT_NAME":"STARLINK-36381","OBJECT_ID":"2026-037W","EPOCH":"2026-03-24T12:00:01.999296","MEAN_MOTION":15.50516801,"ECCENTRICITY":0.0002028,"INCLINATION":42.9998,"RA_OF_ASC_NODE":108.783,"ARG_OF_PERICENTER":264.5595,"MEAN_ANOMALY":187.6532,"EPHEMERIS_TYPE":0,"CLASSIFICATION_TYPE":"U","NORAD_CAT_ID":67952,"ELEMENT_SET_NO":999,"REV_AT_EPOCH":558,"BSTAR":0.0018662,"MEAN_MOTION_DOT":0.00110452,"MEAN_MOTION_DDOT":0},{"OBJECT_NAME":"STARLINK-36824","OBJECT_ID":"2026-037X","EPOCH":"2026-03-24T12:00:01.999296","MEAN_MOTION":15.50509226,"ECCENTRICITY":0.0001395,"INCLINATION":42.9998,"RA_OF_ASC_NODE":109.4288,"ARG_OF_PERICENTER":279.3076,"MEAN_ANOMALY":271.5584,"EPHEMERIS_TYPE":0,"CLASSIFICATION_TYPE":"U","NORAD_CAT_ID":67953,"ELEMENT_SET_NO":999,"REV_AT_EPOCH":558,"BSTAR":0.0016935,"MEAN_MOTION_DOT":0.00100035,"MEAN_MOTION_DDOT":0},{"OBJECT_NAME":"STARLINK-36869","OBJECT_ID":"2026-037Y","EPOCH":"2026-03-24T12:00:01.999296","MEAN_MOTION":15.5051189,"ECCENTRICITY":0.0001407,"INCLINATION":42.9999,"RA_OF_ASC_NODE":109.4207,"ARG_OF_PERICENTER":282.6697,"MEAN_ANOMALY":271.0289,"EPHEMERIS_TYPE":0,"CLASSIFICATION_TYPE":"U","NORAD_CAT_ID":67954,"ELEMENT_SET_NO":999,"REV_AT_EPOCH":558,"BSTAR":0.0016803,"MEAN_MOTION_DOT":0.00099256,"MEAN_MOTION_DDOT":0},{"OBJECT_NAME":"STARLINK-36872","OBJECT_ID":"2026-037Z","EPOCH":"2026-03-24T12:00:01.999296","MEAN_MOTION":15.52562613,"ECCENTRICITY":7.33e-5,"INCLINATION":43.0001,"RA_OF_ASC_NODE":108.5011,"ARG_OF_PERICENTER":305.908,"MEAN_ANOMALY":259.7244,"EPHEMERIS_TYPE":0,"CLASSIFICATION_TYPE":"U","NORAD_CAT_ID":67955,"ELEMENT_SET_NO":999,"REV_AT_EPOCH":558,"BSTAR":-0.042999,"MEAN_MOTION_DOT":-0.02367389,"MEAN_MOTION_DDOT":0},{"OBJECT_NAME":"STARLINK-36918","OBJECT_ID":"2026-037AA","EPOCH":"2026-03-24T12:00:01.999296","MEAN_MOTION":15.50502838,"ECCENTRICITY":0.0001479,"INCLINATION":42.9996,"RA_OF_ASC_NODE":108.7158,"ARG_OF_PERICENTER":276.7229,"MEAN_ANOMALY":201.8509,"EPHEMERIS_TYPE":0,"CLASSIFICATION_TYPE":"U","NORAD_CAT_ID":67956,"ELEMENT_SET_NO":999,"REV_AT_EPOCH":558,"BSTAR":0.0018542,"MEAN_MOTION_DOT":0.00109673,"MEAN_MOTION_DDOT":0},{"OBJECT_NAME":"STARLINK-36829","OBJECT_ID":"2026-037AB","EPOCH":"2026-03-24T12:00:01.999296","MEAN_MOTION":15.50541346,"ECCENTRICITY":7.31e-5,"INCLINATION":42.9999,"RA_OF_ASC_NODE":108.9653,"ARG_OF_PERICENTER":300.5622,"MEAN_ANOMALY":77.3122,"EPHEMERIS_TYPE":0,"CLASSIFICATION_TYPE":"U","NORAD_CAT_ID":67957,"ELEMENT_SET_NO":999,"REV_AT_EPOCH":558,"BSTAR":0.0022513,"MEAN_MOTION_DOT":0.00133831,"MEAN_MOTION_DDOT":0},{"OBJECT_NAME":"STARLINK-36799","OBJECT_ID":"2026-037AC","EPOCH":"2026-03-24T12:00:01.999296","MEAN_MOTION":15.5472072,"ECCENTRICITY":0.0001044,"INCLINATION":43.0002,"RA_OF_ASC_NODE":108.3302,"ARG_OF_PERICENTER":283.8891,"MEAN_ANOMALY":350.94,"EPHEMERIS_TYPE":0,"CLASSIFICATION_TYPE":"U","NORAD_CAT_ID":67958,"ELEMENT_SET_NO":999,"REV_AT_EPOCH":558,"BSTAR":-0.030375,"MEAN_MOTION_DOT":-0.01834229,"MEAN_MOTION_DDOT":0},{"OBJECT_NAME":"STARLINK-36834","OBJECT_ID":"2026-037AD","EPOCH":"2026-03-24T12:00:01.999296","MEAN_MOTION":15.50506066,"ECCENTRICITY":0.0001358,"INCLINATION":42.9999,"RA_OF_ASC_NODE":108.9252,"ARG_OF_PERICENTER":281.5613,"MEAN_ANOMALY":111.8725,"EPHEMERIS_TYPE":0,"CLASSIFICATION_TYPE":"U","NORAD_CAT_ID":67959,"ELEMENT_SET_NO":999,"REV_AT_EPOCH":558,"BSTAR":0.0016193,"MEAN_MOTION_DOT":0.00095576,"MEAN_MOTION_DDOT":0},{"OBJECT_NAME":"STARLINK-36841","OBJECT_ID":"2026-037AE","EPOCH":"2026-03-24T12:00:01.999296","MEAN_MOTION":15.50504754,"ECCENTRICITY":8.84e-5,"INCLINATION":42.9997,"RA_OF_ASC_NODE":108.8705,"ARG_OF_PERICENTER":286.4951,"MEAN_ANOMALY":129.1322,"EPHEMERIS_TYPE":0,"CLASSIFICATION_TYPE":"U","NORAD_CAT_ID":67960,"ELEMENT_SET_NO":999,"REV_AT_EPOCH":558,"BSTAR":0.0016755,"MEAN_MOTION_DOT":0.0009894,"MEAN_MOTION_DDOT":0},{"OBJECT_NAME":"STARLINK-36912","OBJECT_ID":"2026-038A","EPOCH":"2026-03-24T12:00:01.999296","MEAN_MOTION":15.3907289,"ECCENTRICITY":0.0001557,"INCLINATION":97.2862,"RA_OF_ASC_NODE":94.3417,"ARG_OF_PERICENTER":98.3032,"MEAN_ANOMALY":301.3313,"EPHEMERIS_TYPE":0,"CLASSIFICATION_TYPE":"U","NORAD_CAT_ID":67961,"ELEMENT_SET_NO":999,"REV_AT_EPOCH":558,"BSTAR":-0.062061,"MEAN_MOTION_DOT":-0.0212179,"MEAN_MOTION_DDOT":0},{"OBJECT_NAME":"STARLINK-36881","OBJECT_ID":"2026-038B","EPOCH":"2026-03-24T12:00:01.999296","MEAN_MOTION":15.39023876,"ECCENTRICITY":0.0001465,"INCLINATION":97.285,"RA_OF_ASC_NODE":94.3469,"ARG_OF_PERICENTER":99.1842,"MEAN_ANOMALY":312.927,"EPHEMERIS_TYPE":0,"CLASSIFICATION_TYPE":"U","NORAD_CAT_ID":67962,"ELEMENT_SET_NO":999,"REV_AT_EPOCH":558,"BSTAR":-0.062983,"MEAN_MOTION_DOT":-0.02184576,"MEAN_MOTION_DDOT":0},{"OBJECT_NAME":"STARLINK-36357","OBJECT_ID":"2026-038C","EPOCH":"2026-03-24T12:00:01.999296","MEAN_MOTION":15.49576138,"ECCENTRICITY":0.0001165,"INCLINATION":97.2855,"RA_OF_ASC_NODE":94.3164,"ARG_OF_PERICENTER":115.9371,"MEAN_ANOMALY":246.8499,"EPHEMERIS_TYPE":0,"CLASSIFICATION_TYPE":"U","NORAD_CAT_ID":67963,"ELEMENT_SET_NO":999,"REV_AT_EPOCH":558,"BSTAR":-0.044325,"MEAN_MOTION_DOT":-0.02163237,"MEAN_MOTION_DDOT":0},{"OBJECT_NAME":"STARLINK-36349","OBJECT_ID":"2026-038D","EPOCH":"2026-03-24T12:00:01.999296","MEAN_MOTION":15.49015177,"ECCENTRICITY":0.00014,"INCLINATION":97.2858,"RA_OF_ASC_NODE":94.3126,"ARG_OF_PERICENTER":98.0958,"MEAN_ANOMALY":257.5222,"EPHEMERIS_TYPE":0,"CLASSIFICATION_TYPE":"U","NORAD_CAT_ID":67964,"ELEMENT_SET_NO":999,"REV_AT_EPOCH":558,"BSTAR":-0.052162,"MEAN_MOTION_DOT":-0.02501456,"MEAN_MOTION_DDOT":0}]
