STARLINK-36873          
1 67948U 26037S   26083.50002314 -.00025467  00000+0 -42941-3 0  9994
2 67948  42.9999 108.9730 0002192 305.8915  69.4419 15.50595092  5583
STARLINK-36863          
1 67949U 26037T   26083.50002314  .00127201  00000+0  21473-2 0  9998
2 67949  42.9999 108.6575 0000976 293.2210 210.0922 15.50470309  5580
STARLINK-36887          
1 67950U 26037U   26083.50002314  .00101224  00000+0  17130-2 0  9992
2 67950  42.9997 109.5885 0001541 280.0489 206.4311 15.50512911  5582
STARLINK-36897          
1 67951U 26037V   26083.50002314  .00117219  00000+0  19815-2 0  9996
2 67951  42.9999 108.7036 0000896 297.5557 186.5285 15.50473373  5581
STARLINK-36381          
1 67952U 26037W   26083.50002314  .00110452  00000+0  18662-2 0  9998
2 67952  42.9998 108.7830 0002028 264.5595 187.6532 15.50516801  5589
STARLINK-36824          
1 67953U 26037X   26083.50002314  .00100035  00000+0  16935-2 0  9996
2 67953  42.9998 109.4288 0001395 279.3076 271.5584 15.50509226  5582
STARLINK-36869          
1 67954U 26037Y   26083.50002314  .00099256  00000+0  16803-2 0  9993
2 67954  42.9999 109.4207 0001407 282.6697 271.0289 15.50511890  5582
STARLINK-36872          
1 67955U 26037Z   26083.50002314 -.02367389  00000+0 -42999-1 0  9997
2 67955  43.0001 108.5011 0000733 305.9080 259.7244 15.52562613  5583
STARLINK-36918          
1 67956U 26037AA  26083.50002314  .00109673  00000+0  18542-2 0  9992
2 67956  42.9996 108.7158 0001479 276.7229 201.8509 15.50502838  5580
STARLINK-36829          
1 67957U 26037AB  26083.50002314  .00133831  00000+0  22513-2 0  9999
2 67957  42.9999 108.9653 0000731 300.5622  77.3122 15.50541346  5583
STARLINK-36799          
1 67958U 26037AC  26083.50002314 -.01834229  00000+0 -30375-1 0  9996
2 67958  43.0002 108.3302 0001044 283.8891 350.9400 15.54720720  5583
STARLINK-36834          
1 67959U 26037AD  26083.50002314  .00095576  00000+0  16193-2 0  9991
2 67959  42.9999 108.9252 0001358 281.5613 111.8725 15.50506066  5587
STARLINK-36841          
1 67960U 26037AE  26083.50002314  .00098940  00000+0  16755-2 0  9995
2 67960  42.9997 108.8705 0000884 286.4951 129.1322 15.50504754  5588
STARLINK-36912          
1 67961U 26038A   26083.50002314 -.02121790  00000+0 -62061-1 0  9991
2 67961  97.2862  94.3417 0001557  98.3032 301.3313 15.39072890  5582
STARLINK-36881          
1 67962U 26038B   26083.50002314 -.02184576  00000+0 -62983-1 0  9996
2 67962  97.2850  94.3469 0001465  99.1842 312.9270 15.39023876  5583
STARLINK-36357          
1 67963U 26038C   26083.50002314 -.02163237  00000+0 -44325-1 0  9998
2 67963  97.2855  94.3164 0001165 115.9371 246.8499 15.49576138  5585
STARLINK-36349          
1 67964U 26038D   26083.50002314 -.02501456  00000+0 -52162-1 0  9996
2 67964  97.2858  94.3126 0001400  98.0958 257.5222 15.49015177  5585
